{
  "type": "FeatureCollection",
  "features": [
    {
      "type": "Feature",
      "properties": {
        "norad_id": 37238,
        "name": "INTELSAT 17 (IS-17)",
        "group": "intelsat",
        "lat": -0.006981024934720959,
        "lon": -115.68495312292843,
        "alt_km": 35778.71448272089,
        "timestamp": "2025-12-27T05:29:38.861928+00:00",
        "meta_object_name": "INTELSAT 17 (IS-17)",
        "meta_object_id": "2010-065B",
        "meta_epoch": "2025-12-26T20:14:38.686848",
        "meta_mean_motion": 1.00272055,
        "meta_eccentricity": 0.00028945,
        "meta_inclination": 0.0298,
        "meta_ra_of_asc_node": 74.5871,
        "meta_arg_of_pericenter": 223.4014,
        "meta_mean_anomaly": 167.2295,
        "meta_ephemeris_type": 0,
        "meta_classification_type": "U",
        "meta_norad_cat_id": 37238,
        "meta_element_set_no": 999,
        "meta_rev_at_epoch": 5152,
        "meta_bstar": 0,
        "meta_mean_motion_dot": 0,
        "meta_mean_motion_ddot": 0,
        "tle_line1": "1 37238U 10065B   25360.84350332  .00000000  00000+0  00000+0 0  9997",
        "tle_line2": "2 37238   0.0298  74.5871 0002894 223.4014 167.2295  1.00272055 51522"
      },
      "geometry": {
        "type": "Point",
        "coordinates": [
          -115.68495312292843,
          -0.006981024934720959
        ]
      }
    },
    {
      "type": "Feature",
      "properties": {
        "norad_id": 37392,
        "name": "INTELSAT 28 (IS-28)",
        "group": "intelsat",
        "lat": 1.2107142464925342,
        "lon": 146.6211294027308,
        "alt_km": 35795.61094317991,
        "timestamp": "2025-12-27T05:29:38.861940+00:00",
        "meta_object_name": "INTELSAT 28 (IS-28)",
        "meta_object_id": "2011-016A",
        "meta_epoch": "2025-12-26T00:24:38.640960",
        "meta_mean_motion": 1.00271568,
        "meta_eccentricity": 0.00037974,
        "meta_inclination": 1.3569,
        "meta_ra_of_asc_node": 84.9113,
        "meta_arg_of_pericenter": 188.0675,
        "meta_mean_anomaly": 156.2464,
        "meta_ephemeris_type": 0,
        "meta_classification_type": "U",
        "meta_norad_cat_id": 37392,
        "meta_element_set_no": 999,
        "meta_rev_at_epoch": 5154,
        "meta_bstar": 0,
        "meta_mean_motion_dot": -2.03e-06,
        "meta_mean_motion_ddot": 0,
        "tle_line1": "1 37392U 11016A   25360.01711390 -.00000203  00000+0  00000+0 0  9995",
        "tle_line2": "2 37392   1.3569  84.9113 0003797 188.0675 156.2464  1.00271568 51540"
      },
      "geometry": {
        "type": "Point",
        "coordinates": [
          146.6211294027308,
          1.2107142464925342
        ]
      }
    },
    {
      "type": "Feature",
      "properties": {
        "norad_id": 37834,
        "name": "INTELSAT 18 (IS-18)",
        "group": "intelsat",
        "lat": 0.009441036352982385,
        "lon": -1.6128907984371832,
        "alt_km": 35782.82031712895,
        "timestamp": "2025-12-27T05:29:38.861952+00:00",
        "meta_object_name": "INTELSAT 18 (IS-18)",
        "meta_object_id": "2011-056A",
        "meta_epoch": "2025-12-26T17:18:43.561728",
        "meta_mean_motion": 1.00271937,
        "meta_eccentricity": 0.00019738,
        "meta_inclination": 0.0148,
        "meta_ra_of_asc_node": 302.6576,
        "meta_arg_of_pericenter": 348.2305,
        "meta_mean_anomaly": 244.2542,
        "meta_ephemeris_type": 0,
        "meta_classification_type": "U",
        "meta_norad_cat_id": 37834,
        "meta_element_set_no": 999,
        "meta_rev_at_epoch": 5208,
        "meta_bstar": 0,
        "meta_mean_motion_dot": 7.5e-07,
        "meta_mean_motion_ddot": 0,
        "tle_line1": "1 37834U 11056A   25360.72133752  .00000075  00000+0  00000+0 0  9994",
        "tle_line2": "2 37834   0.0148 302.6576 0001973 348.2305 244.2542  1.00271937 52082"
      },
      "geometry": {
        "type": "Point",
        "coordinates": [
          -1.6128907984371832,
          0.009441036352982385
        ]
      }
    },
    {
      "type": "Feature",
      "properties": {
        "norad_id": 38098,
        "name": "INTELSAT 22 (IS-22)",
        "group": "intelsat",
        "lat": -0.023437033559154576,
        "lon": -109.56581350868501,
        "alt_km": 35781.04221364658,
        "timestamp": "2025-12-27T05:29:38.861964+00:00",
        "meta_object_name": "INTELSAT 22 (IS-22)",
        "meta_object_id": "2012-011A",
        "meta_epoch": "2025-12-26T22:28:38.906688",
        "meta_mean_motion": 1.00270674,
        "meta_eccentricity": 0.00019566,
        "meta_inclination": 0.0341,
        "meta_ra_of_asc_node": 53.6003,
        "meta_arg_of_pericenter": 246.6646,
        "meta_mean_anomaly": 204.6569,
        "meta_ephemeris_type": 0,
        "meta_classification_type": "U",
        "meta_norad_cat_id": 38098,
        "meta_element_set_no": 999,
        "meta_rev_at_epoch": 546,
        "meta_bstar": 0,
        "meta_mean_motion_dot": 0,
        "meta_mean_motion_ddot": 0,
        "tle_line1": "1 38098U 12011A   25360.93656142  .00000000  00000+0  00000+0 0  9993",
        "tle_line2": "2 38098   0.0341  53.6003 0001956 246.6646 204.6569  1.00270674  5464"
      },
      "geometry": {
        "type": "Point",
        "coordinates": [
          -109.56581350868501,
          -0.023437033559154576
        ]
      }
    },
    {
      "type": "Feature",
      "properties": {
        "norad_id": 38356,
        "name": "INTELSAT 19 (IS-19)",
        "group": "intelsat",
        "lat": -0.004576695629309624,
        "lon": -15.589648283530742,
        "alt_km": 35781.993505868966,
        "timestamp": "2025-12-27T05:29:38.861976+00:00",
        "meta_object_name": "INTELSAT 19 (IS-19)",
        "meta_object_id": "2012-030A",
        "meta_epoch": "2025-12-26T13:49:38.874432",
        "meta_mean_motion": 1.00271971,
        "meta_eccentricity": 0.00030195,
        "meta_inclination": 0.0093,
        "meta_ra_of_asc_node": 344.9581,
        "meta_arg_of_pericenter": 287.7802,
        "meta_mean_anomaly": 196.0025,
        "meta_ephemeris_type": 0,
        "meta_classification_type": "U",
        "meta_norad_cat_id": 38356,
        "meta_element_set_no": 999,
        "meta_rev_at_epoch": 4872,
        "meta_bstar": 0,
        "meta_mean_motion_dot": -3.4e-07,
        "meta_mean_motion_ddot": 0,
        "tle_line1": "1 38356U 12030A   25360.57614438 -.00000034  00000+0  00000+0 0  9991",
        "tle_line2": "2 38356   0.0093 344.9581 0003019 287.7802 196.0025  1.00271971 48722"
      },
      "geometry": {
        "type": "Point",
        "coordinates": [
          -15.589648283530742,
          -0.004576695629309624
        ]
      }
    },
    {
      "type": "Feature",
      "properties": {
        "norad_id": 38740,
        "name": "INTELSAT 20 (IS-20)",
        "group": "intelsat",
        "lat": -0.011180232464464231,
        "lon": -113.10600942930755,
        "alt_km": 35781.87337034697,
        "timestamp": "2025-12-27T05:29:38.861988+00:00",
        "meta_object_name": "INTELSAT 20 (IS-20)",
        "meta_object_id": "2012-043A",
        "meta_epoch": "2025-12-26T22:28:38.906688",
        "meta_mean_motion": 1.00273703,
        "meta_eccentricity": 0.00017941,
        "meta_inclination": 0.0132,
        "meta_ra_of_asc_node": 63.7334,
        "meta_arg_of_pericenter": 122.235,
        "meta_mean_anomaly": 315.375,
        "meta_ephemeris_type": 0,
        "meta_classification_type": "U",
        "meta_norad_cat_id": 38740,
        "meta_element_set_no": 999,
        "meta_rev_at_epoch": 4902,
        "meta_bstar": 0,
        "meta_mean_motion_dot": -3e-08,
        "meta_mean_motion_ddot": 0,
        "tle_line1": "1 38740U 12043A   25360.93656142 -.00000003  00000+0  00000+0 0  9996",
        "tle_line2": "2 38740   0.0132  63.7334 0001794 122.2350 315.3750  1.00273703 49024"
      },
      "geometry": {
        "type": "Point",
        "coordinates": [
          -113.10600942930755,
          -0.011180232464464231
        ]
      }
    },
    {
      "type": "Feature",
      "properties": {
        "norad_id": 38749,
        "name": "INTELSAT 21 (IS-21)",
        "group": "intelsat",
        "lat": 0.023788064037505177,
        "lon": 120.37256227695501,
        "alt_km": 35792.36446097812,
        "timestamp": "2025-12-27T05:29:38.862014+00:00",
        "meta_object_name": "INTELSAT 21 (IS-21)",
        "meta_object_id": "2012-045A",
        "meta_epoch": "2025-12-26T05:54:07.054272",
        "meta_mean_motion": 1.00271929,
        "meta_eccentricity": 0.0001751,
        "meta_inclination": 0.0183,
        "meta_ra_of_asc_node": 334.425,
        "meta_arg_of_pericenter": 292.8678,
        "meta_mean_anomaly": 218.2466,
        "meta_ephemeris_type": 0,
        "meta_classification_type": "U",
        "meta_norad_cat_id": 38749,
        "meta_element_set_no": 999,
        "meta_rev_at_epoch": 4879,
        "meta_bstar": 0,
        "meta_mean_motion_dot": -2.63e-06,
        "meta_mean_motion_ddot": 0,
        "tle_line1": "1 38749U 12045A   25360.24591498 -.00000263  00000+0  00000+0 0  9991",
        "tle_line2": "2 38749   0.0183 334.4250 0001751 292.8678 218.2466  1.00271929 48790"
      },
      "geometry": {
        "type": "Point",
        "coordinates": [
          120.37256227695501,
          0.023788064037505177
        ]
      }
    }
  ]
}